OBJECT_NAME,OBJECT_ID,EPOCH,MEAN_MOTION,ECCENTRICITY,INCLINATION,RA_OF_ASC_NODE,ARG_OF_PERICENTER,MEAN_ANOMALY,EPHEMERIS_TYPE,CLASSIFICATION_TYPE,NORAD_CAT_ID,ELEMENT_SET_NO,REV_AT_EPOCH,BSTAR,MEAN_MOTION_DOT,MEAN_MOTION_DDOT
SCD 1,1993-009B,2026-06-08T00:07:44.641056,14.46115906,.0042088,24.9694,264.2710,41.0648,119.5596,0,U,22490,999,75978,.62463887E-4,.414E-5,0
TECHSAT 1B (GO-32),1998-043D,2026-06-08T11:52:25.510080,14.24426770,.0000566,99.0065,152.0342,186.1468,173.9703,0,U,25397,999,45009,.51083E-4,.72E-6,0
SCD 2,1998-060A,2026-06-08T07:01:43.999104,14.45522407,.0016857,24.9939,127.0086,30.0681,204.4538,0,U,25504,999,45903,.62552E-4,.406E-5,0
DLR-TUBSAT,1999-029B,2026-06-08T11:24:41.212800,14.52424646,.0014597,98.6694,154.6928,21.3607,338.8194,0,U,25757,999,43198,.38229E-4,.107E-5,0
TERRA,1999-068A,2026-06-08T11:15:48.345984,14.61096449,.0000952,97.9459,209.3609,230.9637,253.7925,0,U,25994,999,40833,.931E-4,.413E-5,0
MAROC-TUBSAT,2001-056D,2026-06-08T10:59:17.885760,13.70262040,.0020048,99.8079,336.1531,163.2078,251.8216,0,U,27004,999,22499,.32382E-4,-.18E-6,0
AQUA,2002-022A,2026-06-08T12:13:43.766112,14.62145240,.0001448,98.4272,128.6193,54.7043,56.2419,0,U,27424,999,28200,.17615E-3,.836E-5,0
SHIYAN-1 (SY-1),2004-012A,2026-06-08T04:18:47.579040,15.33530533,.0006346,97.8687,236.6646,61.6692,298.5189,0,U,28220,999,20971,.36816E-3,.11859E-3,0
AURA,2004-026A,2026-06-08T11:53:41.315712,14.61316492,.0001325,98.3413,115.8773,71.4966,288.6378,0,U,28376,999,16494,.18753E-3,.878E-5,0
IRS-P5 (CARTOSAT-1),2005-017A,2026-06-08T11:43:12.988128,14.91027281,.0002637,97.5310,182.9476,91.1097,269.0424,0,U,28649,999,14252,.16294E-3,.1559E-4,0
SINAH 1,2005-043D,2026-06-08T12:16:54.442272,14.64152150,.0013324,98.2849,293.7833,306.5393,53.4582,0,U,28893,999,9925,.79086E-4,.367E-5,0
RESURS-DK 1,2006-021A,2026-06-07T23:29:54.284064,15.13177297,.00064373,69.9339,3.3886,299.3252,60.7270,0,U,29228,999,10118,.16339632E-3,.2799E-4,0
ARIRANG-2 (KOMPSAT-2),2006-031A,2026-06-08T13:08:37.493952,14.64654646,.0015863,97.8312,344.4124,99.3344,318.1474,0,U,29268,999,6021,.61246E-4,.281E-5,0
LAPAN-TUBSAT,2007-001A,2026-06-08T12:00:32.627232,14.85944873,.0011187,98.1346,158.5290,208.5624,151.4979,0,U,29709,999,4986,.13984E-3,.1164E-4,0
HAIYANG-1B,2007-010A,2026-06-08T11:23:33.774144,14.31024753,.0012527,98.3490,141.6580,223.5369,136.4827,0,U,31113,999,99938,.54152E-4,.101E-5,0
COSMO-SKYMED 1,2007-023A,2026-06-08T12:18:34.439904,14.97061174,.0001133,97.8857,351.2969,80.8199,279.3151,0,U,31598,999,2849,.19483E-3,.2185E-4,0
TERRASAR-X,2007-026A,2026-06-08T11:55:50.527776,15.19149352,.0001702,97.4450,167.3290,82.8468,277.2960,0,U,31698,999,5190,.36934E-4,.709E-5,0
WORLDVIEW-1 (WV-1),2007-041A,2026-06-08T11:52:52.372704,15.24170952,.0003041,97.3862,279.3652,45.0172,315.1311,0,U,32060,999,4155,.25523E-3,.6143E-4,0
YAOGAN-3,2007-055A,2026-06-08T12:51:38.609856,14.90748581,.0001851,97.8158,189.4997,84.5687,275.5742,0,U,32289,999,458,.20987E-3,.2006E-4,0
COSMO-SKYMED 2,2007-059A,2026-06-08T12:28:20.280288,14.82148015,.000142,97.8885,343.2436,84.5119,275.6256,0,U,32376,999,72,.80717E-4,.59E-5,0
RADARSAT-2,2007-061A,2026-06-08T12:01:58.153728,14.29983308,.0001307,98.5783,166.5581,80.7773,279.3557,0,U,32382,999,96471,.62937E-4,.119E-5,0
CARTOSAT-2A,2008-021A,2026-06-08T07:41:26.816064,14.79227367,.00126766,97.7634,208.3316,134.7128,225.5119,0,U,32783,999,97749,.14864554E-3,.1055E-4,0
HUANJING 1A (HJ-1A),2008-041A,2026-06-08T12:51:09.772992,14.83969722,.0019157,97.6685,145.7092,161.9680,198.2218,0,U,33320,999,95712,.21516E-3,.1744E-4,0
HUANJING 1B (HJ-1B),2008-041B,2026-06-08T12:00:59.928768,14.83301598,.0035197,97.6521,148.8735,210.1002,149.8191,0,U,33321,999,95712,.75096E-4,.569E-5,0
GEOEYE 1,2008-042A,2026-06-08T11:25:38.756064,14.64717838,.0005572,98.1236,233.5176,90.3740,269.8101,0,U,33331,999,94887,.10063E-3,.488E-5,0
THEOS,2008-049A,2026-06-08T12:20:23.523360,14.20131424,.0001289,98.5570,217.0794,79.6348,280.4974,0,U,33396,999,91673,-.19458E-4,-.84E-6,0
COSMO-SKYMED 3,2008-054A,2026-06-08T12:15:43.733376,15.06896076,.0014289,97.8292,17.9379,299.6832,60.2972,0,U,33412,999,95563,.17055E-3,.2485E-4,0
YAOGAN-4,2008-061A,2026-06-08T09:31:29.472960,14.83183663,.0015724,97.9306,92.9723,98.3723,261.9274,0,U,33446,999,94436,.13467E-3,.1047E-4,0
GOSAT (IBUKI),2009-002A,2026-06-08T13:08:15.982080,14.67539457,.0001593,98.0883,270.7372,91.7157,268.4230,0,U,33492,999,93019,.15601E-4,.4E-6,0
DEIMOS-1,2009-041A,2026-06-08T12:06:28.013760,14.75228868,.0001054,97.7400,317.1093,138.1164,222.0126,0,U,35681,999,90560,.93782E-4,.587E-5,0
