SCD 1                   
1 22490U 93009B   26159.00537779  .00000414  00000+0  62464-4 0  9993
2 22490  24.9694 264.2710 0042088  41.0648 119.5596 14.46115906759789
TECHSAT 1B (GO-32)      
1 25397U 98043D   26159.49473970  .00000072  00000+0  51083-4 0  9995
2 25397  99.0065 152.0342 0000566 186.1468 173.9703 14.24426770450090
SCD 2                   
1 25504U 98060A   26159.29287036  .00000406  00000+0  62552-4 0  9992
2 25504  24.9939 127.0086 0016857  30.0681 204.4538 14.45522407459034
DLR-TUBSAT              
1 25757U 99029B   26159.47547700  .00000107  00000+0  38229-4 0  9997
2 25757  98.6694 154.6928 0014597  21.3607 338.8194 14.52424646431989
TERRA                   
1 25994U 99068A   26159.46930956  .00000413  00000+0  93100-4 0  9990
2 25994  97.9459 209.3609 0000952 230.9637 253.7925 14.61096449408334
MAROC-TUBSAT            
1 27004U 01056D   26159.45784590 -.00000018  00000+0  32382-4 0  9991
2 27004  99.8079 336.1531 0020048 163.2078 251.8216 13.70262040224996
AQUA                    
1 27424U 02022A   26159.50953433  .00000836  00000+0  17615-3 0  9999
2 27424  98.4272 128.6193 0001448  54.7043  56.2419 14.62145240282001
SHIYAN-1 (SY-1)         
1 28220U 04012A   26159.17971735  .00011859  00000+0  36816-3 0  9994
2 28220  97.8687 236.6646 0006346  61.6692 298.5189 15.33530533209715
AURA                    
1 28376U 04026A   26159.49561708  .00000878  00000+0  18753-3 0  9990
2 28376  98.3413 115.8773 0001325  71.4966 288.6378 14.61316492164945
IRS-P5 (CARTOSAT-1)     
1 28649U 05017A   26159.48834477  .00001559  00000+0  16294-3 0  9994
2 28649  97.5310 182.9476 0002637  91.1097 269.0424 14.91027281142524
SINAH 1                 
1 28893U 05043D   26159.51174123  .00000367  00000+0  79086-4 0  9998
2 28893  98.2849 293.7833 0013324 306.5393  53.4582 14.64152150 99250
RESURS-DK 1             
1 29228U 06021A   26158.97910051  .00002799  00000+0  16340-3 0  9999
2 29228  69.9339   3.3886 0006437 299.3252  60.7270 15.13177297101180
ARIRANG-2 (KOMPSAT-2)   
1 29268U 06031A   26159.54765618  .00000281  00000+0  61246-4 0  9995
2 29268  97.8312 344.4124 0015863  99.3344 318.1474 14.64654646 60219
LAPAN-TUBSAT            
1 29709U 07001A   26159.50037763  .00001164  00000+0  13984-3 0  9998
2 29709  98.1346 158.5290 0011187 208.5624 151.4979 14.85944873 49861
HAIYANG-1B              
1 31113U 07010A   26159.47469646  .00000101  00000+0  54152-4 0  9998
2 31113  98.3490 141.6580 0012527 223.5369 136.4827 14.31024753999385
COSMO-SKYMED 1          
1 31598U 07023A   26159.51289861  .00002185  00000+0  19483-3 0  9994
2 31598  97.8857 351.2969 0001133  80.8199 279.3151 14.97061174 28491
TERRASAR-X              
1 31698U 07026A   26159.49711259  .00000709  00000+0  36934-4 0  9997
2 31698  97.4450 167.3290 0001702  82.8468 277.2960 15.19149352 51900
WORLDVIEW-1 (WV-1)      
1 32060U 07041A   26159.49505061  .00006143  00000+0  25523-3 0  9999
2 32060  97.3862 279.3652 0003041  45.0172 315.1311 15.24170952 41555
YAOGAN-3                
1 32289U 07055A   26159.53586354  .00002006  00000+0  20987-3 0  9999
2 32289  97.8158 189.4997 0001851  84.5687 275.5742 14.90748581  4580
COSMO-SKYMED 2          
1 32376U 07059A   26159.51967917  .00000590  00000+0  80717-4 0  9990
2 32376  97.8885 343.2436 0001420  84.5119 275.6256 14.82148015   724
RADARSAT-2              
1 32382U 07061A   26159.50136752  .00000119  00000+0  62937-4 0  9995
2 32382  98.5783 166.5581 0001307  80.7773 279.3557 14.29983308964717
CARTOSAT-2A             
1 32783U 08021A   26159.32044926  .00001055  00000+0  14865-3 0  9994
2 32783  97.7634 208.3316 0012676 134.7128 225.5119 14.79227367977491
HUANJING 1A (HJ-1A)     
1 33320U 08041A   26159.53552978  .00001744  00000+0  21516-3 0  9994
2 33320  97.6685 145.7092 0019157 161.9680 198.2218 14.83969722957122
HUANJING 1B (HJ-1B)     
1 33321U 08041B   26159.50069362  .00000569  00000+0  75096-4 0  9999
2 33321  97.6521 148.8735 0035197 210.1002 149.8191 14.83301598957120
GEOEYE 1                
1 33331U 08042A   26159.47614301  .00000488  00000+0  10063-3 0  9998
2 33331  98.1236 233.5176 0005572  90.3740 269.8101 14.64717838948875
THEOS                   
1 33396U 08049A   26159.51416115 -.00000084  00000+0 -19458-4 0  9996
2 33396  98.5570 217.0794 0001289  79.6348 280.4974 14.20131424916739
COSMO-SKYMED 3          
1 33412U 08054A   26159.51092284  .00002485  00000+0  17055-3 0  9993
2 33412  97.8292  17.9379 0014289 299.6832  60.2972 15.06896076955633
YAOGAN-4                
1 33446U 08061A   26159.39686890  .00001047  00000+0  13467-3 0  9992
2 33446  97.9306  92.9723 0015724  98.3723 261.9274 14.83183663944369
GOSAT (IBUKI)           
1 33492U 09002A   26159.54740720  .00000040  00000+0  15601-4 0  9994
2 33492  98.0883 270.7372 0001593  91.7157 268.4230 14.67539457930193
DEIMOS-1                
1 35681U 09041A   26159.50449090  .00000587  00000+0  93782-4 0  9993
2 35681  97.7400 317.1093 0001054 138.1164 222.0126 14.75228868905606
